[{"OBJECT_NAME":"SALSAT","OBJECT_ID":"2020-068K","EPOCH":"2026-04-25T22:26:17.896704","MEAN_MOTION":15.29005761,"ECCENTRICITY":0.00115234,"INCLINATION":97.8865,"RA_OF_ASC_NODE":115.8517,"ARG_OF_PERICENTER":121.2153,"MEAN_ANOMALY":239.0216,"EPHEMERIS_TYPE":0,"CLASSIFICATION_TYPE":"U","NORAD_CAT_ID":46495,"ELEMENT_SET_NO":999,"REV_AT_EPOCH":30737,"BSTAR":0.00034294036,"MEAN_MOTION_DOT":9.598e-5,"MEAN_MOTION_DDOT":0},{"OBJECT_NAME":"XW-3 (CAS-9)","OBJECT_ID":"2021-131B","EPOCH":"2026-04-25T22:04:34.184640","MEAN_MOTION":14.41304475,"ECCENTRICITY":0.00029251,"INCLINATION":98.4944,"RA_OF_ASC_NODE":208.601,"ARG_OF_PERICENTER":248.3696,"MEAN_ANOMALY":111.7182,"EPHEMERIS_TYPE":0,"CLASSIFICATION_TYPE":"U","NORAD_CAT_ID":50466,"ELEMENT_SET_NO":999,"REV_AT_EPOCH":22758,"BSTAR":0.00010983366,"MEAN_MOTION_DOT":3.11e-6,"MEAN_MOTION_DDOT":0},{"OBJECT_NAME":"GREENCUBE (IO-117)","OBJECT_ID":"2022-080E","EPOCH":"2026-04-25T13:54:02.371104","MEAN_MOTION":6.42583381,"ECCENTRICITY":0.00087608,"INCLINATION":70.1459,"RA_OF_ASC_NODE":316.5503,"ARG_OF_PERICENTER":301.7513,"MEAN_ANOMALY":58.2293,"EPHEMERIS_TYPE":0,"CLASSIFICATION_TYPE":"U","NORAD_CAT_ID":53109,"ELEMENT_SET_NO":999,"REV_AT_EPOCH":8868,"BSTAR":0,"MEAN_MOTION_DOT":-3.0e-8,"MEAN_MOTION_DDOT":0},{"OBJECT_NAME":"UMKA 1 (RS40S)","OBJECT_ID":"2023-091G","EPOCH":"2026-04-25T21:45:55.727136","MEAN_MOTION":15.20216851,"ECCENTRICITY":0.00113656,"INCLINATION":97.5094,"RA_OF_ASC_NODE":174.818,"ARG_OF_PERICENTER":305.6744,"MEAN_ANOMALY":54.3432,"EPHEMERIS_TYPE":0,"CLASSIFICATION_TYPE":"U","NORAD_CAT_ID":57172,"ELEMENT_SET_NO":999,"REV_AT_EPOCH":15606,"BSTAR":0.00033175398,"MEAN_MOTION_DOT":7.134e-5,"MEAN_MOTION_DDOT":0},{"OBJECT_NAME":"CUBESX-HSE 3 (RS42S)","OBJECT_ID":"2023-091N","EPOCH":"2026-04-25T22:27:55.663488","MEAN_MOTION":15.29889972,"ECCENTRICITY":0.00093447,"INCLINATION":97.5128,"RA_OF_ASC_NODE":180.9085,"ARG_OF_PERICENTER":276.1432,"MEAN_ANOMALY":83.8744,"EPHEMERIS_TYPE":0,"CLASSIFICATION_TYPE":"U","NORAD_CAT_ID":57178,"ELEMENT_SET_NO":999,"REV_AT_EPOCH":15643,"BSTAR":0.00052219131,"MEAN_MOTION_DOT":0.00015068,"MEAN_MOTION_DDOT":0},{"OBJECT_NAME":"MONITOR-3 (RS58S)","OBJECT_ID":"2023-091Q","EPOCH":"2026-04-25T21:58:18.853536","MEAN_MOTION":15.26785405,"ECCENTRICITY":0.00102179,"INCLINATION":97.5122,"RA_OF_ASC_NODE":179.0111,"ARG_OF_PERICENTER":284.5473,"MEAN_ANOMALY":75.4632,"EPHEMERIS_TYPE":0,"CLASSIFICATION_TYPE":"U","NORAD_CAT_ID":57180,"ELEMENT_SET_NO":999,"REV_AT_EPOCH":15631,"BSTAR":0.00046563315,"MEAN_MOTION_DOT":0.0001221,"MEAN_MOTION_DDOT":0},{"OBJECT_NAME":"MONITOR-4 (RS57S)","OBJECT_ID":"2023-091S","EPOCH":"2026-04-25T21:32:51.391392","MEAN_MOTION":15.26880375,"ECCENTRICITY":0.00101597,"INCLINATION":97.5116,"RA_OF_ASC_NODE":178.9612,"ARG_OF_PERICENTER":284.9321,"MEAN_ANOMALY":75.0793,"EPHEMERIS_TYPE":0,"CLASSIFICATION_TYPE":"U","NORAD_CAT_ID":57182,"ELEMENT_SET_NO":999,"REV_AT_EPOCH":15631,"BSTAR":0.00044090164,"MEAN_MOTION_DOT":0.0001159,"MEAN_MOTION_DDOT":0},{"OBJECT_NAME":"MONITOR-2 (RS39S)","OBJECT_ID":"2023-091U","EPOCH":"2026-04-25T22:19:49.971936","MEAN_MOTION":15.1841974,"ECCENTRICITY":0.00097217,"INCLINATION":97.5116,"RA_OF_ASC_NODE":174.559,"ARG_OF_PERICENTER":297.946,"MEAN_ANOMALY":62.079,"EPHEMERIS_TYPE":0,"CLASSIFICATION_TYPE":"U","NORAD_CAT_ID":57184,"ELEMENT_SET_NO":999,"REV_AT_EPOCH":15602,"BSTAR":0.00026869719,"MEAN_MOTION_DOT":5.467e-5,"MEAN_MOTION_DDOT":0},{"OBJECT_NAME":"SVYATOBOR 1 (RS60S)","OBJECT_ID":"2023-091X","EPOCH":"2026-04-25T22:25:01.020576","MEAN_MOTION":15.2571402,"ECCENTRICITY":0.00078858,"INCLINATION":97.5127,"RA_OF_ASC_NODE":179.489,"ARG_OF_PERICENTER":275.4214,"MEAN_ANOMALY":84.6124,"EPHEMERIS_TYPE":0,"CLASSIFICATION_TYPE":"U","NORAD_CAT_ID":57187,"ELEMENT_SET_NO":999,"REV_AT_EPOCH":15634,"BSTAR":0.00041235199,"MEAN_MOTION_DOT":0.00010452,"MEAN_MOTION_DDOT":0},{"OBJECT_NAME":"VIZARD-METEO (RS38S)","OBJECT_ID":"2023-091Z","EPOCH":"2026-04-25T22:29:22.816896","MEAN_MOTION":15.34357472,"ECCENTRICITY":0.00061485,"INCLINATION":97.5122,"RA_OF_ASC_NODE":184.4364,"ARG_OF_PERICENTER":248.6659,"MEAN_ANOMALY":111.3927,"EPHEMERIS_TYPE":0,"CLASSIFICATION_TYPE":"U","NORAD_CAT_ID":57189,"ELEMENT_SET_NO":999,"REV_AT_EPOCH":15667,"BSTAR":0.00056520284,"MEAN_MOTION_DOT":0.00018757,"MEAN_MOTION_DDOT":0},{"OBJECT_NAME":"POLYTECH-UNIVERSE 3 (RS46S)","OBJECT_ID":"2023-091AB","EPOCH":"2026-04-25T21:33:56.848896","MEAN_MOTION":15.18616801,"ECCENTRICITY":0.00142749,"INCLINATION":97.5091,"RA_OF_ASC_NODE":174.0326,"ARG_OF_PERICENTER":315.4872,"MEAN_ANOMALY":44.5214,"EPHEMERIS_TYPE":0,"CLASSIFICATION_TYPE":"U","NORAD_CAT_ID":57191,"ELEMENT_SET_NO":999,"REV_AT_EPOCH":15601,"BSTAR":0.0002916561,"MEAN_MOTION_DOT":5.983e-5,"MEAN_MOTION_DDOT":0},{"OBJECT_NAME":"UTMN 2 (RS27S)","OBJECT_ID":"2023-091AP","EPOCH":"2026-04-25T22:01:10.266816","MEAN_MOTION":15.30756617,"ECCENTRICITY":0.00067126,"INCLINATION":97.5121,"RA_OF_ASC_NODE":182.4589,"ARG_OF_PERICENTER":259.6272,"MEAN_ANOMALY":100.4212,"EPHEMERIS_TYPE":0,"CLASSIFICATION_TYPE":"U","NORAD_CAT_ID":57203,"ELEMENT_SET_NO":999,"REV_AT_EPOCH":15654,"BSTAR":0.00050198594,"MEAN_MOTION_DOT":0.00014866,"MEAN_MOTION_DDOT":0},{"OBJECT_NAME":"KUZGTU 1 (RS47S)","OBJECT_ID":"2023-091AV","EPOCH":"2026-04-25T22:45:50.792256","MEAN_MOTION":15.28657057,"ECCENTRICITY":0.00095103,"INCLINATION":97.5101,"RA_OF_ASC_NODE":179.9366,"ARG_OF_PERICENTER":280.58,"MEAN_ANOMALY":79.4368,"EPHEMERIS_TYPE":0,"CLASSIFICATION_TYPE":"U","NORAD_CAT_ID":57217,"ELEMENT_SET_NO":999,"REV_AT_EPOCH":15639,"BSTAR":0.00047416665,"MEAN_MOTION_DOT":0.00013164,"MEAN_MOTION_DDOT":0},{"OBJECT_NAME":"SONATE-2","OBJECT_ID":"2024-043Q","EPOCH":"2026-04-25T22:41:41.213760","MEAN_MOTION":15.54980825,"ECCENTRICITY":0.00067546,"INCLINATION":97.5475,"RA_OF_ASC_NODE":263.3121,"ARG_OF_PERICENTER":41.015,"MEAN_ANOMALY":319.161,"EPHEMERIS_TYPE":0,"CLASSIFICATION_TYPE":"U","NORAD_CAT_ID":59112,"ELEMENT_SET_NO":999,"REV_AT_EPOCH":11976,"BSTAR":0.00062322742,"MEAN_MOTION_DOT":0.00041843,"MEAN_MOTION_DDOT":0},{"OBJECT_NAME":"MESAT1","OBJECT_ID":"2024-125G","EPOCH":"2026-04-25T14:04:28.693344","MEAN_MOTION":15.57939272,"ECCENTRICITY":0.00118002,"INCLINATION":97.2383,"RA_OF_ASC_NODE":332.0618,"ARG_OF_PERICENTER":59.3499,"MEAN_ANOMALY":300.8919,"EPHEMERIS_TYPE":0,"CLASSIFICATION_TYPE":"U","NORAD_CAT_ID":60209,"ELEMENT_SET_NO":999,"REV_AT_EPOCH":10136,"BSTAR":0.00063870491,"MEAN_MOTION_DOT":0.00047982,"MEAN_MOTION_DDOT":0},{"OBJECT_NAME":"OOV-CUBE (TUBSAT-30)","OBJECT_ID":"2024-128F","EPOCH":"2026-04-25T22:49:01.680960","MEAN_MOTION":15.02506942,"ECCENTRICITY":0.00505424,"INCLINATION":61.9959,"RA_OF_ASC_NODE":47.6812,"ARG_OF_PERICENTER":122.2863,"MEAN_ANOMALY":238.314,"EPHEMERIS_TYPE":0,"CLASSIFICATION_TYPE":"U","NORAD_CAT_ID":60240,"ELEMENT_SET_NO":999,"REV_AT_EPOCH":9826,"BSTAR":0.00021994754,"MEAN_MOTION_DOT":2.8e-5,"MEAN_MOTION_DDOT":0}]
