SALSAT                  
1 46495U 20068K   26115.93492936  .00009598  00000+0  34294-3 0  9999
2 46495  97.8865 115.8517 0011523 121.2153 239.0216 15.29005761307377
XW-3 (CAS-9)            
1 50466U 21131B   26115.91984010  .00000311  00000+0  10983-3 0  9994
2 50466  98.4944 208.6010 0002925 248.3696 111.7182 14.41304475227582
GREENCUBE (IO-117)      
1 53109U 22080E   26115.57919411 -.00000003  00000+0  00000+0 0  9994
2 53109  70.1459 316.5503 0008760 301.7513  58.2293  6.42583381 88689
UMKA 1 (RS40S)          
1 57172U 23091G   26115.90689499  .00007134  00000+0  33175-3 0  9992
2 57172  97.5094 174.8180 0011365 305.6744  54.3432 15.20216851156062
CUBESX-HSE 3 (RS42S)    
1 57178U 23091N   26115.93606092  .00015068  00000+0  52219-3 0  9994
2 57178  97.5128 180.9085 0009344 276.1432  83.8744 15.29889972156431
MONITOR-3 (RS58S)       
1 57180U 23091Q   26115.91549599  .00012210  00000+0  46563-3 0  9994
2 57180  97.5122 179.0111 0010217 284.5473  75.4632 15.26785405156319
MONITOR-4 (RS57S)       
1 57182U 23091S   26115.89781703  .00011590  00000+0  44090-3 0  9991
2 57182  97.5116 178.9612 0010159 284.9321  75.0793 15.26880375156315
MONITOR-2 (RS39S)       
1 57184U 23091U   26115.93043949  .00005467  00000+0  26870-3 0  9993
2 57184  97.5116 174.5590 0009721 297.9460  62.0790 15.18419740156021
SVYATOBOR 1 (RS60S)     
1 57187U 23091X   26115.93403959  .00010452  00000+0  41235-3 0  9999
2 57187  97.5127 179.4890 0007885 275.4214  84.6124 15.25714020156343
VIZARD-METEO (RS38S)    
1 57189U 23091Z   26115.93706964  .00018757  00000+0  56520-3 0  9992
2 57189  97.5122 184.4364 0006148 248.6659 111.3927 15.34357472156677
POLYTECH-UNIVERSE 3 (R*)
1 57191U 23091AB  26115.89857464  .00005983  00000+0  29166-3 0  9995
2 57191  97.5091 174.0326 0014274 315.4872  44.5214 15.18616801156017
UTMN 2 (RS27S)          
1 57203U 23091AP  26115.91747994  .00014866  00000+0  50199-3 0  9998
2 57203  97.5121 182.4589 0006712 259.6272 100.4212 15.30756617156542
KUZGTU 1 (RS47S)        
1 57217U 23091AV  26115.94850454  .00013164  00000+0  47417-3 0  9991
2 57217  97.5101 179.9366 0009510 280.5800  79.4368 15.28657057156393
SONATE-2                
1 59112U 24043Q   26115.94561590  .00041843  00000+0  62323-3 0  9993
2 59112  97.5475 263.3121 0006754  41.0150 319.1610 15.54980825119760
MESAT1                  
1 60209U 24125G   26115.58644321  .00047982  00000+0  63870-3 0  9995
2 60209  97.2383 332.0618 0011800  59.3499 300.8919 15.57939272101364
OOV-CUBE (TUBSAT-30)    
1 60240U 24128F   26115.95071390  .00002800  00000+0  21995-3 0  9996
2 60240  61.9959  47.6812 0050542 122.2863 238.3140 15.02506942 98261
